[{"OBJECT_NAME":"STARLINK-33727","OBJECT_ID":"2025-087Y","EPOCH":"2026-03-09T16:39:49.271328","MEAN_MOTION":15.30239099,"ECCENTRICITY":5.862e-5,"INCLINATION":53.1582,"RA_OF_ASC_NODE":219.2984,"ARG_OF_PERICENTER":92.8431,"MEAN_ANOMALY":267.2637,"EPHEMERIS_TYPE":0,"CLASSIFICATION_TYPE":"U","NORAD_CAT_ID":63719,"ELEMENT_SET_NO":999,"REV_AT_EPOCH":4920,"BSTAR":0.00097595897,"MEAN_MOTION_DOT":0.00028693,"MEAN_MOTION_DDOT":0},{"OBJECT_NAME":"OBJECT J","OBJECT_ID":"2025-155J","EPOCH":"2026-03-09T22:09:22.347648","MEAN_MOTION":15.2758258,"ECCENTRICITY":0.00088188,"INCLINATION":97.4475,"RA_OF_ASC_NODE":37.3123,"ARG_OF_PERICENTER":150.071,"MEAN_ANOMALY":210.1035,"EPHEMERIS_TYPE":0,"CLASSIFICATION_TYPE":"U","NORAD_CAT_ID":64884,"ELEMENT_SET_NO":999,"REV_AT_EPOCH":6559,"BSTAR":0.00051444498,"MEAN_MOTION_DOT":0.00013827,"MEAN_MOTION_DDOT":0}]
